STARLINK-2022           
1 47643U 21012Z   24183.52233748  .00023936  00000+0  16185-2 0  9997
2 47643  53.0546 297.7002 0001399  86.7433 273.3716 15.06442823186873
